start=new Date('2022-04-10T00:00:00.000Z').valueOf();
sats=[{"SITE":"AFETR","BSTAR":"-0.00011397000000","MEAN_ELEMENT_THEORY":"SGP4","TIME_SYSTEM":"UTC","RCS_SIZE":"LARGE","EPHEMERIS_TYPE":"0","NORAD_CAT_ID":"45738","ARG_OF_PERICENTER":"57.1691","MEAN_MOTION_DOT":"-0.00001979","OBJECT_TYPE":"PAYLOAD","PERIOD":"95.592","COUNTRY_CODE":"US","CENTER_NAME":"EARTH","PERIAPSIS":"546.053","TLE_LINE2":"2 45738  53.0546 176.4912 0001686  57.1691 302.9460 15.06397701100646","LAUNCH_DATE":"2020-06-13","OBJECT_NAME":"STARLINK-1474","FILE":"3395351","MEAN_MOTION":"15.06397701","ELEMENT_SET_NO":"999","MEAN_ANOMALY":"302.9460","RA_OF_ASC_NODE":"176.4912","OBJECT_ID":"2020-038J","SEMIMAJOR_AXIS":"6925.356","CLASSIFICATION_TYPE":"U","MEAN_MOTION_DDOT":"0.0000000000000","EPOCH":"2022-04-09T14:40:06.704544","REV_AT_EPOCH":"10064","APOAPSIS":"548.388","DECAY_DATE":null,"GP_ID":"200860416","ECCENTRICITY":"0.00016860","REF_FRAME":"TEME","TLE_LINE1":"1 45738U 20038J   22099.61118871 -.00001979  00000-0 -11397-3 0  9997","INCLINATION":"53.0546"},{"OBJECT_ID":"2020-038K","RA_OF_ASC_NODE":"135.5255","FILE":"3395351","MEAN_ANOMALY":"304.8731","ELEMENT_SET_NO":"999","MEAN_MOTION":"15.06395208","SEMIMAJOR_AXIS":"6925.363","CLASSIFICATION_TYPE":"U","MEAN_MOTION_DDOT":"0.0000000000000","REV_AT_EPOCH":"10123","EPOCH":"2022-04-09T19:47:57.801120","APOAPSIS":"548.439","ECCENTRICITY":"0.00017490","GP_ID":"200860170","DECAY_DATE":null,"REF_FRAME":"TEME","TLE_LINE1":"1 45739U 20038K   22099.82497455 -.00001591  00000-0 -87970-4 0  9990","INCLINATION":"53.0533","BSTAR":"-0.00008797000000","MEAN_ELEMENT_THEORY":"SGP4","SITE":"AFETR","NORAD_CAT_ID":"45739","EPHEMERIS_TYPE":"0","TIME_SYSTEM":"UTC","RCS_SIZE":"LARGE","ARG_OF_PERICENTER":"55.2423","MEAN_MOTION_DOT":"-0.00001591","OBJECT_TYPE":"PAYLOAD","PERIOD":"95.592","COUNTRY_CODE":"US","LAUNCH_DATE":"2020-06-13","CENTER_NAME":"EARTH","TLE_LINE2":"2 45739  53.0533 135.5255 0001749  55.2423 304.8731 15.06395208101239","PERIAPSIS":"546.017","OBJECT_NAME":"STARLINK-1475"},{"MEAN_MOTION_DOT":"-0.00002713","OBJECT_TYPE":"PAYLOAD","ARG_OF_PERICENTER":"63.7237","RCS_SIZE":"LARGE","TIME_SYSTEM":"UTC","EPHEMERIS_TYPE":"0","NORAD_CAT_ID":"45740","SITE":"AFETR","BSTAR":"-0.00016336000000","MEAN_ELEMENT_THEORY":"SGP4","OBJECT_NAME":"STARLINK-1479","CENTER_NAME":"EARTH","PERIAPSIS":"546.161","TLE_LINE2":"2 45740  53.0532 176.1639 0001550  63.7237 296.3911 15.06393158100656","LAUNCH_DATE":"2020-06-13","COUNTRY_CODE":"US","PERIOD":"95.593","CLASSIFICATION_TYPE":"U","MEAN_MOTION_DDOT":"0.0000000000000","SEMIMAJOR_AXIS":"6925.370","ELEMENT_SET_NO":"999","FILE":"3395351","MEAN_MOTION":"15.06393158","MEAN_ANOMALY":"296.3911","OBJECT_ID":"2020-038L","RA_OF_ASC_NODE":"176.1639","TLE_LINE1":"1 45740U 20038L   22099.68490113 -.00002713  00000-0 -16336-3 0  9994","REF_FRAME":"TEME","INCLINATION":"53.0532","DECAY_DATE":null,"ECCENTRICITY":"0.00015500","GP_ID":"200860912","APOAPSIS":"548.308","EPOCH":"2022-04-09T16:26:15.457632","REV_AT_EPOCH":"10065"},{"OBJECT_NAME":"STARLINK-1480","PERIAPSIS":"546.098","TLE_LINE2":"2 45741  53.0534 175.1123 0001633  55.1606 304.9536 15.06394985100707","CENTER_NAME":"EARTH","LAUNCH_DATE":"2020-06-13","COUNTRY_CODE":"US","PERIOD":"95.592","OBJECT_TYPE":"PAYLOAD","MEAN_MOTION_DOT":"-0.00001831","ARG_OF_PERICENTER":"55.1606","TIME_SYSTEM":"UTC","RCS_SIZE":"LARGE","NORAD_CAT_ID":"45741","EPHEMERIS_TYPE":"0","SITE":"AFETR","MEAN_ELEMENT_THEORY":"SGP4","BSTAR":"-0.00010403000000","INCLINATION":"53.0534","TLE_LINE1":"1 45741U 20038M   22099.92080560 -.00001831  00000-0 -10403-3 0  9992","REF_FRAME":"TEME","DECAY_DATE":null,"ECCENTRICITY":"0.00016330","GP_ID":"200861142","APOAPSIS":"548.360","EPOCH":"2022-04-09T22:05:57.603840","REV_AT_EPOCH":"10070","CLASSIFICATION_TYPE":"U","MEAN_MOTION_DDOT":"0.0000000000000","SEMIMAJOR_AXIS":"6925.364","ELEMENT_SET_NO":"999","FILE":"3395351","MEAN_MOTION":"15.06394985","MEAN_ANOMALY":"304.9536","RA_OF_ASC_NODE":"175.1123","OBJECT_ID":"2020-038M"},{"COUNTRY_CODE":"US","PERIOD":"95.593","OBJECT_NAME":"STARLINK-1481","PERIAPSIS":"546.008","TLE_LINE2":"2 45742  53.0532 175.1261 0001788  47.5154 312.5986 15.06389250100683","CENTER_NAME":"EARTH","LAUNCH_DATE":"2020-06-13","TIME_SYSTEM":"UTC","RCS_SIZE":"LARGE","NORAD_CAT_ID":"45742","EPHEMERIS_TYPE":"0","SITE":"AFETR","MEAN_ELEMENT_THEORY":"SGP4","BSTAR":"-0.00026786000000","OBJECT_TYPE":"PAYLOAD","MEAN_MOTION_DOT":"-0.00004268","ARG_OF_PERICENTER":"47.5154","APOAPSIS":"548.485","EPOCH":"2022-04-09T21:55:20.529984","REV_AT_EPOCH":"10068","INCLINATION":"53.0532","TLE_LINE1":"1 45742U 20038N   22099.91343206 -.00004268  00000-0 -26786-3 0  9999","REF_FRAME":"TEME","DECAY_DATE":null,"ECCENTRICITY":"0.00017880","GP_ID":"200859917","FILE":"3395351","ELEMENT_SET_NO":"999","MEAN_ANOMALY":"312.5986","MEAN_MOTION":"15.06389250","RA_OF_ASC_NODE":"175.1261","OBJECT_ID":"2020-038N","MEAN_MOTION_DDOT":"0.0000000000000","CLASSIFICATION_TYPE":"U","SEMIMAJOR_AXIS":"6925.382"},{"OBJECT_NAME":"STARLINK-1483","LAUNCH_DATE":"2020-06-13","CENTER_NAME":"EARTH","PERIAPSIS":"545.884","TLE_LINE2":"2 45743  53.0590 175.8248 0001944  40.6022 319.5111 15.06394406100666","COUNTRY_CODE":"US","PERIOD":"95.592","MEAN_MOTION_DOT":"-0.00003715","OBJECT_TYPE":"PAYLOAD","ARG_OF_PERICENTER":"40.6022","NORAD_CAT_ID":"45743","EPHEMERIS_TYPE":"0","RCS_SIZE":"LARGE","TIME_SYSTEM":"UTC","BSTAR":"-0.00023062000000","MEAN_ELEMENT_THEORY":"SGP4","SITE":"AFETR","TLE_LINE1":"1 45743U 20038P   22099.73187193 -.00003715  00000-0 -23062-3 0  9991","INCLINATION":"53.0590","REF_FRAME":"TEME","GP_ID":"200860670","ECCENTRICITY":"0.00019440","DECAY_DATE":null,"APOAPSIS":"548.577","REV_AT_EPOCH":"10066","EPOCH":"2022-04-09T17:33:53.734752","MEAN_MOTION_DDOT":"0.0000000000000","CLASSIFICATION_TYPE":"U","SEMIMAJOR_AXIS":"6925.366","RA_OF_ASC_NODE":"175.8248","OBJECT_ID":"2020-038P","FILE":"3395351","ELEMENT_SET_NO":"999","MEAN_ANOMALY":"319.5111","MEAN_MOTION":"15.06394406"},{"OBJECT_NAME":"STARLINK-1500","TLE_LINE2":"2 45744  53.0519 175.1730 0001971  45.6265 314.4885 15.06385311100691","PERIAPSIS":"545.894","CENTER_NAME":"EARTH","LAUNCH_DATE":"2020-06-13","COUNTRY_CODE":"US","PERIOD":"95.593","OBJECT_TYPE":"PAYLOAD","MEAN_MOTION_DOT":"-0.00001145","ARG_OF_PERICENTER":"45.6265","RCS_SIZE":"LARGE","TIME_SYSTEM":"UTC","NORAD_CAT_ID":"45744","EPHEMERIS_TYPE":"0","SITE":"AFETR","MEAN_ELEMENT_THEORY":"SGP4","BSTAR":"-0.00005798800000","TLE_LINE1":"1 45744U 20038Q   22099.90237219 -.00001145  00000-0 -57988-4 0  9996","REF_FRAME":"TEME","INCLINATION":"53.0519","DECAY_DATE":null,"GP_ID":"200861412","ECCENTRICITY":"0.00019710","APOAPSIS":"548.624","EPOCH":"2022-04-09T21:39:24.957216","REV_AT_EPOCH":"10069","MEAN_MOTION_DDOT":"0.0000000000000","CLASSIFICATION_TYPE":"U","SEMIMAJOR_AXIS":"6925.394","ELEMENT_SET_NO":"999","FILE":"3395351","MEAN_MOTION":"15.06385311","MEAN_ANOMALY":"314.4885","OBJECT_ID":"2020-038Q","RA_OF_ASC_NODE":"175.1730"},{"OBJECT_NAME":"STARLINK-1503","CENTER_NAME":"EARTH","PERIAPSIS":"546.061","TLE_LINE2":"2 45745  53.0514 176.1288 0001566  65.8489 294.2663 15.06422354100652","LAUNCH_DATE":"2020-06-13","COUNTRY_CODE":"US","PERIOD":"95.591","MEAN_MOTION_DOT":"0.00006676","OBJECT_TYPE":"PAYLOAD","ARG_OF_PERICENTER":"65.8489","TIME_SYSTEM":"UTC","RCS_SIZE":"LARGE","NORAD_CAT_ID":"45745","EPHEMERIS_TYPE":"0","SITE":"AFETR","BSTAR":"0.00046635000000","MEAN_ELEMENT_THEORY":"SGP4","TLE_LINE1":"1 45745U 20038R   22099.69226084  .00006676  00000-0  46635-3 0  9999","REF_FRAME":"TEME","INCLINATION":"53.0514","DECAY_DATE":null,"ECCENTRICITY":"0.00015660","GP_ID":"200861642","APOAPSIS":"548.230","EPOCH":"2022-04-09T16:36:51.336576","REV_AT_EPOCH":"10065","MEAN_MOTION_DDOT":"0.0000000000000","CLASSIFICATION_TYPE":"U","SEMIMAJOR_AXIS":"6925.280","FILE":"3395351","ELEMENT_SET_NO":"999","MEAN_ANOMALY":"294.2663","MEAN_MOTION":"15.06422354","RA_OF_ASC_NODE":"176.1288","OBJECT_ID":"2020-038R"},{"MEAN_MOTION_DOT":"-0.00004197","OBJECT_TYPE":"PAYLOAD","ARG_OF_PERICENTER":"41.9554","RCS_SIZE":"LARGE","TIME_SYSTEM":"UTC","EPHEMERIS_TYPE":"0","NORAD_CAT_ID":"45746","SITE":"AFETR","BSTAR":"-0.00026304000000","MEAN_ELEMENT_THEORY":"SGP4","OBJECT_NAME":"STARLINK-1504","CENTER_NAME":"EARTH","PERIAPSIS":"545.820","TLE_LINE2":"2 45746  53.0545 175.1558 0002028  41.9554 318.1590 15.06396579100685","LAUNCH_DATE":"2020-06-13","COUNTRY_CODE":"US","PERIOD":"95.592","MEAN_MOTION_DDOT":"0.0000000000000","CLASSIFICATION_TYPE":"U","SEMIMAJOR_AXIS":"6925.359","MEAN_ANOMALY":"318.1590","FILE":"3395351","ELEMENT_SET_NO":"999","MEAN_MOTION":"15.06396579","RA_OF_ASC_NODE":"175.1558","OBJECT_ID":"2020-038S","TLE_LINE1":"1 45746U 20038S   22099.90605760 -.00004197  00000-0 -26304-3 0  9995","INCLINATION":"53.0545","REF_FRAME":"TEME","DECAY_DATE":null,"ECCENTRICITY":"0.00020280","GP_ID":"200860417","APOAPSIS":"548.629","EPOCH":"2022-04-09T21:44:43.376640","REV_AT_EPOCH":"10068"},{"OBJECT_ID":"2020-038T","RA_OF_ASC_NODE":"175.1500","ELEMENT_SET_NO":"999","FILE":"3395351","MEAN_MOTION":"15.06394545","MEAN_ANOMALY":"316.6946","CLASSIFICATION_TYPE":"U","MEAN_MOTION_DDOT":"0.0000000000000","SEMIMAJOR_AXIS":"6925.365","APOAPSIS":"548.572","REV_AT_EPOCH":"10069","EPOCH":"2022-04-09T21:50:02.042304","REF_FRAME":"TEME","TLE_LINE1":"1 45747U 20038T   22099.90974586  .00000633  00000-0  61410-4 0  9998","INCLINATION":"53.0522","ECCENTRICITY":"0.00019370","GP_ID":"200860171","DECAY_DATE":null,"EPHEMERIS_TYPE":"0","NORAD_CAT_ID":"45747","RCS_SIZE":"LARGE","TIME_SYSTEM":"UTC","MEAN_ELEMENT_THEORY":"SGP4","BSTAR":"0.00006141000000","SITE":"AFETR","OBJECT_TYPE":"PAYLOAD","MEAN_MOTION_DOT":"0.00000633","ARG_OF_PERICENTER":"43.4195","COUNTRY_CODE":"US","PERIOD":"95.592","OBJECT_NAME":"STARLINK-1506","LAUNCH_DATE":"2020-06-13","TLE_LINE2":"2 45747  53.0522 175.1500 0001937  43.4195 316.6946 15.06394545100694","PERIAPSIS":"545.889","CENTER_NAME":"EARTH"}];
